$$SOE
2460154.500000000, A.D. 2023-Jul-29 00:00:00.0000, -4.279137532773482E+06, 3.357056904150822E+08, -6.866635973777512E+07,
2460161.500000000, A.D. 2023-Aug-05 00:00:00.0000, -1.504657990375799E+07, 3.419889764618881E+08, -7.009873484036642E+07,
2460168.500000000, A.D. 2023-Aug-12 00:00:00.0000, -2.579698619413031E+07, 3.478830494840708E+08, -7.145132584728423E+07,
2460175.500000000, A.D. 2023-Aug-19 00:00:00.0000, -3.651973090386133E+07, 3.534029911754302E+08, -7.272706902059773E+07,
2460182.500000000, A.D. 2023-Aug-26 00:00:00.0000, -4.720537327548648E+07, 3.585631504662821E+08, -7.392876730036402E+07,
2460189.500000000, A.D. 2023-Sep-02 00:00:00.0000, -5.784551821503510E+07, 3.633771694103040E+08, -7.505909367212823E+07,
2460196.500000000, A.D. 2023-Sep-09 00:00:00.0000, -6.843269447032385E+07, 3.678580119874136E+08, -7.612059540269385E+07,
2460203.500000000, A.D. 2023-Sep-16 00:00:00.0000, -7.896024769490649E+07, 3.720179944671975E+08, -7.711569886873218E+07,
2460210.500000000, A.D. 2023-Sep-23 00:00:00.0000, -8.942224604674549E+07, 3.758688166575818E+08, -7.804671476966128E+07,
2460217.500000000, A.D. 2023-Sep-30 00:00:00.0000, -9.981339697024857E+07, 3.794215945261065E+08, -7.891584342963263E+07,
2460224.500000000, A.D. 2023-Oct-07 00:00:00.0000, -1.101289760395087E+08, 3.826868931446084E+08, -7.972517989369130E+07,
2460231.500000000, A.D. 2023-Oct-14 00:00:00.0000, -1.203647655386073E+08, 3.856747562822553E+08, -8.047671909149428E+07,
2460238.500000000, A.D. 2023-Oct-21 00:00:00.0000, -1.305169984408429E+08, 3.883947340033742E+08, -8.117236116752684E+07,
2460245.500000000, A.D. 2023-Oct-28 00:00:00.0000, -1.405823082471042E+08, 3.908559103760238E+08, -8.181391661868398E+07,
2460252.500000000, A.D. 2023-Nov-04 00:00:00.0000, -1.505576850934601E+08, 3.930669304277584E+08, -8.240311115685388E+07,
2460259.500000000, A.D. 2023-Nov-11 00:00:00.0000, -1.604404372223702E+08, 3.950360257005131E+08, -8.294159034108165E+07,
2460266.500000000, A.D. 2023-Nov-18 00:00:00.0000, -1.702281569671569E+08, 3.967710383267377E+08, -8.343092399228725E+07,
2460273.500000000, A.D. 2023-Nov-25 00:00:00.0000, -1.799186906303411E+08, 3.982794436608821E+08, -8.387261038930908E+07,
2460280.500000000, A.D. 2023-Dec-02 00:00:00.0000, -1.895101117545574E+08, 3.995683714851640E+08, -8.426808024892393E+07,
2460287.500000000, A.D. 2023-Dec-09 00:00:00.0000, -1.990006972982230E+08, 4.006446257749827E+08, -8.461870050536333E+07,
2460294.500000000, A.D. 2023-Dec-16 00:00:00.0000, -2.083889060716359E+08, 4.015147030907834E+08, -8.492577792149121E+07,
2460301.500000000, A.D. 2023-Dec-23 00:00:00.0000, -2.176733587734272E+08, 4.021848103438637E+08, -8.519056251613873E+07,
2460308.500000000, A.D. 2023-Dec-30 00:00:00.0000, -2.268528206948946E+08, 4.026608830483454E+08, -8.541425060868596E+07,
2460315.500000000, A.D. 2024-Jan-06 00:00:00.0000, -2.359261886244055E+08, 4.029486017614494E+08, -8.559798752093077E+07,
2460322.500000000, A.D. 2024-Jan-13 00:00:00.0000, -2.448924785681047E+08, 4.030534049636642E+08, -8.574287038323383E+07,
2460329.500000000, A.D. 2024-Jan-20 00:00:00.0000, -2.537508128818235E+08, 4.029805015204892E+08, -8.584995091407102E+07,
2460336.500000000, A.D. 2024-Jan-27 00:00:00.0000, -2.625004086841640E+08, 4.027348834358755E+08, -8.592023794374433E+07,
2460343.500000000, A.D. 2024-Feb-03 00:00:00.0000, -2.711405678386149E+08, 4.023213380035810E+08, -8.595469972990450E+07,
2460350.500000000, A.D. 2024-Feb-10 00:00:00.0000, -2.796706681043309E+08, 4.017444591168693E+08, -8.595426612307265E+07,
2460357.500000000, A.D. 2024-Feb-17 00:00:00.0000, -2.880901552092215E+08, 4.010086577937982E+08, -8.591983060310823E+07,
2460364.500000000, A.D. 2024-Feb-24 00:00:00.0000, -2.963985357146134E+08, 4.001181719799913E+08, -8.585225219736724E+07,
2460371.500000000, A.D. 2024-Mar-02 00:00:00.0000, -3.045953705582836E+08, 3.990770756409594E+08, -8.575235729412070E+07,
2460378.500000000, A.D. 2024-Mar-09 00:00:00.0000, -3.126802690626851E+08, 3.978892871229250E+08, -8.562094137677798E+07,
2460385.500000000, A.D. 2024-Mar-16 00:00:00.0000, -3.206528829470963E+08, 3.965585770183235E+08, -8.545877070614544E+07,
2460392.500000000, A.D. 2024-Mar-23 00:00:00.0000, -3.285129003890513E+08, 3.950885766812851E+08, -8.526658385725808E+07,
2460399.500000000, A.D. 2024-Mar-30 00:00:00.0000, -3.362600423247735E+08, 3.934827874006944E+08, -8.504509291389114E+07,
2460406.500000000, A.D. 2024-Apr-06 00:00:00.0000, -3.438940606857261E+08, 3.917445868951840E+08, -8.479498462521218E+07,
2460413.500000000, A.D. 2024-Apr-13 00:00:00.0000, -3.514147349780544E+08, 3.898772339943581E+08, -8.451692178662734E+07,
2460420.500000000, A.D. 2024-Apr-20 00:00:00.0000, -3.588218681214876E+08, 3.878838742092131E+08, -8.421154454370472E+07,
2460427.500000000, A.D. 2024-Apr-27 00:00:00.0000, -3.661152830329698E+08, 3.857675456563378E+08, -8.387947153098539E+07,
2460434.500000000, A.D. 2024-May-04 00:00:00.0000, -3.732948198378788E+08, 3.835311846563843E+08, -8.352130091560109E+07,
2460441.500000000, A.D. 2024-May-11 00:00:00.0000, -3.803603334443577E+08, 3.811776309268168E+08, -8.313761137976618E+07,
2460448.500000000, A.D. 2024-May-18 00:00:00.0000, -3.873116913755894E+08, 3.787096324108900E+08, -8.272896305151561E+07,
2460455.500000000, A.D. 2024-May-25 00:00:00.0000, -3.941487718146211E+08, 3.761298497547853E+08, -8.229589838991621E+07,
2460462.500000000, A.D. 2024-Jun-01 00:00:00.0000, -4.008714617833694E+08, 3.734408603932682E+08, -8.183894303804941E+07,
2460469.500000000, A.D. 2024-Jun-08 00:00:00.0000, -4.074796551928085E+08, 3.706451622374655E+08, -8.135860667110270E+07,
2460476.500000000, A.D. 2024-Jun-15 00:00:00.0000, -4.139732503499225E+08, 3.677451775252001E+08, -8.085538383431034E+07,
2460483.500000000, A.D. 2024-Jun-22 00:00:00.0000, -4.203521479135480E+08, 3.647432580234661E+08, -8.032975458506763E+07,
2460490.500000000, A.D. 2024-Jun-29 00:00:00.0000, -4.266162514089211E+08, 3.616416897763464E+08, -7.978218489596656E+07,
2460497.500000000, A.D. 2024-Jul-06 00:00:00.0000, -4.327654676439412E+08, 3.584426949401349E+08, -7.921312726529074E+07,
2460504.500000000, A.D. 2024-Jul-13 00:00:00.0000, -4.387997050667574E+08, 3.551484335402733E+08, -7.862302148446023E+07,
2460511.500000000, A.D. 2024-Jul-20 00:00:00.0000, -4.447188720414502E+08, 3.517610063087333E+08, -7.801229528824589E+07,
2460518.500000000, A.D. 2024-Jul-27 00:00:00.0000, -4.505228756897504E+08, 3.482824576521844E+08, -7.738136490789877E+07,
2460525.500000000, A.D. 2024-Aug-03 00:00:00.0000, -4.562116210184301E+08, 3.447147783848770E+08, -7.673063558461055E+07,
2460532.500000000, A.D. 2024-Aug-10 00:00:00.0000, -4.617850101602626E+08, 3.410599082301438E+08, -7.606050206068036E+07,
2460539.500000000, A.D. 2024-Aug-17 00:00:00.0000, -4.672429416758044E+08, 3.373197381205550E+08, -7.537134905287400E+07,
2460546.500000000, A.D. 2024-Aug-24 00:00:00.0000, -4.725853098831722E+08, 3.334961122827240E+08, -7.466355171425974E+07,
2460553.500000000, A.D. 2024-Aug-31 00:00:00.0000, -4.778120040953520E+08, 3.295908300531567E+08, -7.393747610191622E+07,
2460560.500000000, A.D. 2024-Sep-07 00:00:00.0000, -4.829229073948300E+08, 3.256056475587539E+08, -7.319347967526987E+07,
2460567.500000000, A.D. 2024-Sep-14 00:00:00.0000, -4.879178948559246E+08, 3.215422802643018E+08, -7.243191175289500E+07,
2460574.500000000, A.D. 2024-Sep-21 00:00:00.0000, -4.927968332400230E+08, 3.174024068055613E+08, -7.165311370936555E+07,
2460581.500000000, A.D. 2024-Sep-28 00:00:00.0000, -4.975595826478453E+08, 3.131876708864053E+08, -7.085741913256550E+07,
2460588.500000000, A.D. 2024-Oct-05 00:00:00.0000, -5.022059964549550E+08, 3.088996812469447E+08, -7.004515427881491E+07,
2460595.500000000, A.D. 2024-Oct-12 00:00:00.0000, -5.067359198877130E+08, 3.045400126868344E+08, -6.921663854997095E+07,
2460602.500000000, A.D. 2024-Oct-19 00:00:00.0000, -5.111491889884343E+08, 3.001102078773614E+08, -6.837218485508704E+07,
2460609.500000000, A.D. 2024-Oct-26 00:00:00.0000, -5.154456299998894E+08, 2.956117791656730E+08, -6.751209992013851E+07,
2460616.500000000, A.D. 2024-Nov-02 00:00:00.0000, -5.196250589093314E+08, 2.910462102271665E+08, -6.663668458232166E+07,
2460623.500000000, A.D. 2024-Nov-09 00:00:00.0000, -5.236872810530714E+08, 2.864149575908060E+08, -6.574623407677918E+07,
2460630.500000000, A.D. 2024-Nov-16 00:00:00.0000, -5.276320907535309E+08, 2.817194520414758E+08, -6.484103831874739E+07,
2460637.500000000, A.D. 2024-Nov-23 00:00:00.0000, -5.314592709398481E+08, 2.769610998531501E+08, -6.392138219011086E+07,
2460644.500000000, A.D. 2024-Nov-30 00:00:00.0000, -5.351685925418796E+08, 2.721412838137205E+08, -6.298754585350447E+07,
2460651.500000000, A.D. 2024-Dec-07 00:00:00.0000, -5.387598132363955E+08, 2.672613644653365E+08, -6.203980509855124E+07,
2460658.500000000, A.D. 2024-Dec-14 00:00:00.0000, -5.422326762326347E+08, 2.623226827871997E+08, -6.107843155752172E+07,
2460665.500000000, A.D. 2024-Dec-21 00:00:00.0000, -5.455869114148518E+08, 2.573265630830993E+08, -6.010369267970642E+07,
2460672.500000000, A.D. 2024-Dec-28 00:00:00.0000, -5.488222368682380E+08, 2.522743131097336E+08, -5.911585188837501E+07,
2460679.500000000, A.D. 2025-Jan-04 00:00:00.0000, -5.519383581889817E+08, 2.471672238246570E+08, -5.811516896448030E+07,
2460686.500000000, A.D. 2025-Jan-11 00:00:00.0000, -5.549349673983917E+08, 2.420065704156938E+08, -5.710190035460323E+07,
2460693.500000000, A.D. 2025-Jan-18 00:00:00.0000, -5.578117423774073E+08, 2.367936136954621E+08, -5.607629939450098E+07,
2460700.500000000, A.D. 2025-Jan-25 00:00:00.0000, -5.605683465771766E+08, 2.315296013891785E+08, -5.503861650968455E+07,
2460707.500000000, A.D. 2025-Feb-01 00:00:00.0000, -5.632044288151274E+08, 2.262157692881635E+08, -5.398909941308103E+07,
2460714.500000000, A.D. 2025-Feb-08 00:00:00.0000, -5.657196230970426E+08, 2.208533422911268E+08, -5.292799330373230E+07,
$$EOE